[{"OBJECT_NAME":"SARAL","OBJECT_ID":"2013-009A","EPOCH":"2026-03-09T22:48:24.420096","MEAN_MOTION":14.32828644,"ECCENTRICITY":0.00014927,"INCLINATION":98.5556,"RA_OF_ASC_NODE":256.7632,"ARG_OF_PERICENTER":179.752,"MEAN_ANOMALY":180.3665,"EPHEMERIS_TYPE":0,"CLASSIFICATION_TYPE":"U","NORAD_CAT_ID":39086,"ELEMENT_SET_NO":999,"REV_AT_EPOCH":68139,"BSTAR":7.1114041e-5,"MEAN_MOTION_DOT":1.5e-6,"MEAN_MOTION_DDOT":0},{"OBJECT_NAME":"CZ-6A DEB","OBJECT_ID":"2024-140FL","EPOCH":"2026-03-09T14:27:49.189824","MEAN_MOTION":14.46962281,"ECCENTRICITY":0.0095566,"INCLINATION":88.9854,"RA_OF_ASC_NODE":282.2619,"ARG_OF_PERICENTER":276.1943,"MEAN_ANOMALY":82.8381,"EPHEMERIS_TYPE":0,"CLASSIFICATION_TYPE":"U","NORAD_CAT_ID":60785,"ELEMENT_SET_NO":999,"REV_AT_EPOCH":8305,"BSTAR":0.0001024,"MEAN_MOTION_DOT":4.09e-6,"MEAN_MOTION_DDOT":0}]
